{
 "type": "FeatureCollection",
 "features": [
  {
   "type": "Feature",
   "geometry": {
    "type": "Point",
    "coordinates": [
     -73.979233,
     40.745132
    ]
   },
   "properties": {
    "id": "2nd-ave-deli",
    "name": "2nd Ave Deli",
    "address": "162 E 33rd St, New York, NY, 10016, US",
    "on_list_now": false,
    "periods": [
     "2025-04-18..2025-12-18"
    ],
    "period_count": 1
   }
  },
  {
   "type": "Feature",
   "geometry": {
    "type": "Point",
    "coordinates": [
     -73.947949,
     40.680491
    ]
   },
   "properties": {
    "id": "a-and-a-bake-doubles-and-roti",
    "name": "A&A Bake Doubles and Roti",
    "address": "1337 Fulton Street, Brooklyn, NY 11216",
    "on_list_now": true,
    "periods": [
     "2021-01-22..2023-03-21",
     "2023-10-13..2026-09-21"
    ],
    "period_count": 2
   }
  },
  {
   "type": "Feature",
   "geometry": {
    "type": "Point",
    "coordinates": [
     -73.911003,
     40.768398
    ]
   },
   "properties": {
    "id": "abuqir",
    "name": "Abuqir",
    "address": "2419 Steinway St, Astoria, NY, 11103, US",
    "on_list_now": true,
    "periods": [
     "2024-07-11..2026-09-21"
    ],
    "period_count": 1
   }
  },
  {
   "type": "Feature",
   "geometry": {
    "type": "Point",
    "coordinates": [
     -73.986245,
     40.726842
    ]
   },
   "properties": {
    "id": "adda",
    "name": "Adda",
    "address": "107 1st Ave, New York, NY, 10003, US",
    "on_list_now": true,
    "periods": [
     "2019-04-17..2021-04-24",
     "2025-10-08..2026-09-21"
    ],
    "period_count": 2
   }
  },
  {
   "type": "Feature",
   "geometry": {
    "type": "Point",
    "coordinates": [
     -73.944111,
     40.814159
    ]
   },
   "properties": {
    "id": "africa-kine",
    "name": "Africa Kine",
    "address": "2267 Adam Clayton Powell Jr Blvd, New York, NY 10027",
    "on_list_now": false,
    "periods": [
     "2020-03-18..2022-12-27"
    ],
    "period_count": 1
   }
  },
  {
   "type": "Feature",
   "geometry": {
    "type": "Point",
    "coordinates": [
     -73.91789,
     40.780993
    ]
   },
   "properties": {
    "id": "agnanti",
    "name": "Agnanti",
    "address": "1906 Ditmars Blvd (at 19th St), Astoria, NY 11105",
    "on_list_now": false,
    "periods": [
     "2024-04-09..2024-06-17"
    ],
    "period_count": 1
   }
  },
  {
   "type": "Feature",
   "geometry": {
    "type": "Point",
    "coordinates": [
     -73.995003,
     40.690641
    ]
   },
   "properties": {
    "id": "al-badawi",
    "name": "Al Badawi",
    "address": "151 Atlantic Ave, Brooklyn, NY, 11201, US",
    "on_list_now": true,
    "periods": [
     "2022-04-26..2023-03-21",
     "2026-01-13..2026-09-21"
    ],
    "period_count": 2
   }
  },
  {
   "type": "Feature",
   "geometry": {
    "type": "Point",
    "coordinates": [
     -73.964891,
     40.711038
    ]
   },
   "properties": {
    "id": "aldama",
    "name": "Aldama",
    "address": "91 S 6th St, Brooklyn, NY 11249",
    "on_list_now": false,
    "periods": [
     "2022-08-11..2023-03-21"
    ],
    "period_count": 1
   }
  },
  {
   "type": "Feature",
   "geometry": {
    "type": "Point",
    "coordinates": [
     -73.982863,
     40.744208
    ]
   },
   "properties": {
    "id": "atomix",
    "name": "Atomix",
    "address": "104 E 30th St New York, NY 10016",
    "on_list_now": false,
    "periods": [
     "2019-07-21..2020-11-12"
    ],
    "period_count": 1
   }
  },
  {
   "type": "Feature",
   "geometry": {
    "type": "Point",
    "coordinates": [
     -73.879089,
     40.737429
    ]
   },
   "properties": {
    "id": "awang-kitchen",
    "name": "Awang Kitchen",
    "address": "8405 Queens Blvd, New York, NY 11373",
    "on_list_now": false,
    "periods": [
     "2024-04-09..2025-04-05"
    ],
    "period_count": 1
   }
  },
  {
   "type": "Feature",
   "geometry": {
    "type": "Point",
    "coordinates": [
     -73.887621,
     40.743433
    ]
   },
   "properties": {
    "id": "ayada",
    "name": "Ayada",
    "address": "7708 Woodside Ave (btwn 77th & 78th St), Elmhurst, NY 11373",
    "on_list_now": false,
    "periods": [
     "2024-01-13..2024-06-17"
    ],
    "period_count": 1
   }
  },
  {
   "type": "Feature",
   "geometry": {
    "type": "Point",
    "coordinates": [
     -74.03093,
     40.624218
    ]
   },
   "properties": {
    "id": "ayat",
    "name": "Ayat",
    "address": "8504 3rd Avenue, Brooklyn, NY, 11209",
    "on_list_now": false,
    "periods": [
     "2021-10-15..2022-04-07",
     "2023-03-28..2024-06-17",
     "2025-04-18..2025-12-18"
    ],
    "period_count": 3
   }
  },
  {
   "type": "Feature",
   "geometry": {
    "type": "Point",
    "coordinates": [
     -73.988132,
     40.728466
    ]
   },
   "properties": {
    "id": "b-and-h-dairy",
    "name": "B&H Dairy",
    "address": "127 2nd Ave, New York, NY 10003",
    "on_list_now": false,
    "periods": [
     "2023-03-28..2023-10-03"
    ],
    "period_count": 1
   }
  },
  {
   "type": "Feature",
   "geometry": {
    "type": "Point",
    "coordinates": [
     -73.985035,
     40.747118
    ]
   },
   "properties": {
    "id": "baekjeong",
    "name": "Baekjeong",
    "address": "1 E 32nd St, New York, NY 10016",
    "on_list_now": false,
    "periods": [
     "2023-03-28..2023-11-28"
    ],
    "period_count": 1
   }
  },
  {
   "type": "Feature",
   "geometry": {
    "type": "Point",
    "coordinates": [
     -73.99823,
     40.722668
    ]
   },
   "properties": {
    "id": "balthazar",
    "name": "Balthazar",
    "address": "80 Spring St, New York, NY, 10012, US",
    "on_list_now": true,
    "periods": [
     "2017-08-05..2018-10-03",
     "2023-03-28..2026-09-21"
    ],
    "period_count": 2
   }
  },
  {
   "type": "Feature",
   "geometry": {
    "type": "Point",
    "coordinates": [
     -73.951208,
     40.716495
    ]
   },
   "properties": {
    "id": "bamonte-s",
    "name": "Bamonte's",
    "address": "32 Withers St, Brooklyn, NY 11211",
    "on_list_now": false,
    "periods": [
     "2022-08-11..2022-12-27"
    ],
    "period_count": 1
   }
  },
  {
   "type": "Feature",
   "geometry": {
    "type": "Point",
    "coordinates": [
     -74.005802,
     40.739035
    ]
   },
   "properties": {
    "id": "bangkok-supper-club",
    "name": "Bangkok Supper Club",
    "address": "641 Hudson St (at Jane St), New York, NY 10014",
    "on_list_now": false,
    "periods": [
     "2024-07-11..2024-10-07"
    ],
    "period_count": 1
   }
  },
  {
   "type": "Feature",
   "geometry": {
    "type": "Point",
    "coordinates": [
     -73.888239,
     40.74752
    ]
   },
   "properties": {
    "id": "birria-landia",
    "name": "Birria-Landia",
    "address": "77-99 Roosevelt Ave, Queens, NY 11372",
    "on_list_now": false,
    "periods": [
     "2020-11-21..2022-12-27"
    ],
    "period_count": 1
   }
  },
  {
   "type": "Feature",
   "geometry": {
    "type": "Point",
    "coordinates": [
     -73.976539,
     40.762926
    ]
   },
   "properties": {
    "id": "blue-willow",
    "name": "Blue Willow",
    "address": "40 W 56th St New York, NY 10019",
    "on_list_now": false,
    "periods": [
     "2021-06-14..2022-04-07"
    ],
    "period_count": 1
   }
  },
  {
   "type": "Feature",
   "geometry": {
    "type": "Point",
    "coordinates": [
     -73.998707,
     40.715838
    ]
   },
   "properties": {
    "id": "bo-ky",
    "name": "Bo Ky",
    "address": "80 Bayard St New York, NY 10013",
    "on_list_now": false,
    "periods": [
     "2021-04-21..2021-04-24"
    ],
    "period_count": 1
   }
  },
  {
   "type": "Feature",
   "geometry": {
    "type": "Point",
    "coordinates": [
     -73.920777,
     40.739291
    ]
   },
   "properties": {
    "id": "bolivian-llama-party",
    "name": "Bolivian Llama Party",
    "address": "44-14 48th Ave, Queens, NY 11377",
    "on_list_now": false,
    "periods": [
     "2019-01-19..2022-12-27"
    ],
    "period_count": 1
   }
  },
  {
   "type": "Feature",
   "geometry": {
    "type": "Point",
    "coordinates": [
     -73.954813,
     40.672693
    ]
   },
   "properties": {
    "id": "bong",
    "name": "Bong",
    "address": "724 Sterling Pl, Brooklyn, NY, 11216, US",
    "on_list_now": true,
    "periods": [
     "2026-01-13..2026-09-21"
    ],
    "period_count": 1
   }
  },
  {
   "type": "Feature",
   "geometry": {
    "type": "Point",
    "coordinates": [
     -73.983503,
     40.742159
    ]
   },
   "properties": {
    "id": "borgo",
    "name": "Borgo",
    "address": "124 E 27th St, New York, NY, 10016, US",
    "on_list_now": true,
    "periods": [
     "2026-04-06..2026-09-21"
    ],
    "period_count": 1
   }
  },
  {
   "type": "Feature",
   "geometry": {
    "type": "Point",
    "coordinates": [
     -73.921458,
     40.879677
    ]
   },
   "properties": {
    "id": "bread-and-salt",
    "name": "Bread & Salt",
    "address": "435 Palisade Ave, Jersey City, NJ 07307",
    "on_list_now": false,
    "periods": [
     "2020-11-21..2022-09-22"
    ],
    "period_count": 1
   }
  },
  {
   "type": "Feature",
   "geometry": {
    "type": "Point",
    "coordinates": [
     -73.927825,
     40.704878
    ]
   },
   "properties": {
    "id": "bunna-cafe",
    "name": "Bunna Cafe",
    "address": "1084 Flushing Ave, Brooklyn, NY 11237",
    "on_list_now": false,
    "periods": [
     "2021-04-21..2023-03-21"
    ],
    "period_count": 1
   }
  },
  {
   "type": "Feature",
   "geometry": {
    "type": "Point",
    "coordinates": [
     -73.996697,
     40.719323
    ]
   },
   "properties": {
    "id": "banh-mi-saigon",
    "name": "Bánh Mì Saigon",
    "address": "198 Grand St, New York, NY 10013",
    "on_list_now": false,
    "periods": [
     "2023-07-13..2023-11-28"
    ],
    "period_count": 1
   }
  },
  {
   "type": "Feature",
   "geometry": {
    "type": "Point",
    "coordinates": [
     -73.979333,
     40.781283
    ]
   },
   "properties": {
    "id": "banh-vietnamese-shop-house",
    "name": "Bánh Vietnamese Shop House",
    "address": "942 Amsterdam Ave, New York, NY 10024",
    "on_list_now": false,
    "periods": [
     "2021-06-14..2024-03-17"
    ],
    "period_count": 1
   }
  },
  {
   "type": "Feature",
   "geometry": {
    "type": "Point",
    "coordinates": [
     -73.967603,
     40.765082
    ]
   },
   "properties": {
    "id": "cafe-boulud",
    "name": "Cafe Boulud",
    "address": "100 East 63rd Street, New York, New York 10065",
    "on_list_now": false,
    "periods": [
     "2025-01-15..2025-09-29"
    ],
    "period_count": 1
   }
  },
  {
   "type": "Feature",
   "geometry": {
    "type": "Point",
    "coordinates": [
     -73.96320104598999,
     40.76941879473296
    ]
   },
   "properties": {
    "id": "cafe-commerce",
    "name": "Cafe Commerce",
    "address": "964 Lexington Ave, New York, NY 10021",
    "on_list_now": false,
    "periods": [
     "2025-10-08..2026-07-09"
    ],
    "period_count": 1
   }
  },
  {
   "type": "Feature",
   "geometry": {
    "type": "Point",
    "coordinates": [
     -74.011066,
     40.678716
    ]
   },
   "properties": {
    "id": "cafe-kestrel",
    "name": "Cafe Kestrel",
    "address": "293 Van Brunt Street, Brooklyn, New York 11231",
    "on_list_now": false,
    "periods": [
     "2025-01-15..2025-09-29"
    ],
    "period_count": 1
   }
  },
  {
   "type": "Feature",
   "geometry": {
    "type": "Point",
    "coordinates": [
     -73.983173963681,
     40.75034199411
    ]
   },
   "properties": {
    "id": "cafe-china",
    "name": "Café China",
    "address": "13 E 37th St (btwn 5th Ave & Madison Ave), New York, NY 10016",
    "on_list_now": false,
    "periods": [
     "2024-01-13..2024-03-17"
    ],
    "period_count": 1
   }
  },
  {
   "type": "Feature",
   "geometry": {
    "type": "Point",
    "coordinates": [
     -73.982831,
     40.722503
    ]
   },
   "properties": {
    "id": "carnitas-ramirez",
    "name": "Carnitas Ramirez",
    "address": "210 E 3rd St, New York, NY, 10009, US",
    "on_list_now": true,
    "periods": [
     "2025-04-18..2026-09-21"
    ],
    "period_count": 1
   }
  },
  {
   "type": "Feature",
   "geometry": {
    "type": "Point",
    "coordinates": [
     -73.95429342985153,
     40.7433837980786
    ]
   },
   "properties": {
    "id": "casa-enrique",
    "name": "Casa Enrique",
    "address": "5-48 49th Ave Queens, NY",
    "on_list_now": false,
    "periods": [
     "2017-08-05..2017-08-05"
    ],
    "period_count": 1
   }
  },
  {
   "type": "Feature",
   "geometry": {
    "type": "Point",
    "coordinates": [
     -73.991318,
     40.714896
    ]
   },
   "properties": {
    "id": "cervo-s",
    "name": "Cervo's",
    "address": "43 Canal St New York, NY 10002",
    "on_list_now": false,
    "periods": [
     "2019-04-17..2020-11-12",
     "2021-06-14..2021-12-20"
    ],
    "period_count": 2
   }
  },
  {
   "type": "Feature",
   "geometry": {
    "type": "Point",
    "coordinates": [
     -73.988977,
     40.763956
    ]
   },
   "properties": {
    "id": "cha-long",
    "name": "Cha Long",
    "address": "749 9th Ave, New York, NY, 10019, US",
    "on_list_now": false,
    "periods": [
     "2024-10-10..2025-12-18"
    ],
    "period_count": 1
   }
  },
  {
   "type": "Feature",
   "geometry": {
    "type": "Point",
    "coordinates": [
     -73.99888,
     40.738459
    ]
   },
   "properties": {
    "id": "chama-mama",
    "name": "Chama Mama",
    "address": "149 West 14th Street, Manhattan, NY, 10011",
    "on_list_now": true,
    "periods": [
     "2023-03-28..2026-09-21"
    ],
    "period_count": 1
   }
  },
  {
   "type": "Feature",
   "geometry": {
    "type": "Point",
    "coordinates": [
     -73.955323,
     40.812565
    ]
   },
   "properties": {
    "id": "charles-pan-fried-chicken",
    "name": "Charles Pan-Fried Chicken",
    "address": "439 W 125th St, New York, NY, 10027, US",
    "on_list_now": false,
    "periods": [
     "2018-02-03..2019-12-05",
     "2023-01-13..2023-03-21",
     "2026-01-13..2026-07-09"
    ],
    "period_count": 3
   }
  },
  {
   "type": "Feature",
   "geometry": {
    "type": "Point",
    "coordinates": [
     -73.863976,
     40.727664828300476
    ]
   },
   "properties": {
    "id": "cheburechnaya",
    "name": "Cheburechnaya",
    "address": "9209 63rd Dr Ste A Flushing, NY",
    "on_list_now": false,
    "periods": [
     "2017-08-05..2019-12-05"
    ],
    "period_count": 1
   }
  },
  {
   "type": "Feature",
   "geometry": {
    "type": "Point",
    "coordinates": [
     -73.988592,
     40.729275
    ]
   },
   "properties": {
    "id": "cheli",
    "name": "CheLi",
    "address": "19 St Marks Pl New York, NY 10003",
    "on_list_now": false,
    "periods": [
     "2022-04-26..2022-06-16"
    ],
    "period_count": 1
   }
  },
  {
   "type": "Feature",
   "geometry": {
    "type": "Point",
    "coordinates": [
     -73.957595,
     40.726889
    ]
   },
   "properties": {
    "id": "chez-ma-tante",
    "name": "Chez Ma Tante",
    "address": "90 Calyer St Brooklyn, NY 11222",
    "on_list_now": false,
    "periods": [
     "2019-01-19..2019-05-28",
     "2021-06-14..2021-10-11"
    ],
    "period_count": 2
   }
  },
  {
   "type": "Feature",
   "geometry": {
    "type": "Point",
    "coordinates": [
     -74.009139,
     40.639701
    ]
   },
   "properties": {
    "id": "chuan-tian-xia",
    "name": "Chuan Tian Xia",
    "address": "5502 7th Ave, Brooklyn, NY 11220",
    "on_list_now": false,
    "periods": [
     "2021-06-14..2023-03-21"
    ],
    "period_count": 1
   }
  },
  {
   "type": "Feature",
   "geometry": {
    "type": "Point",
    "coordinates": [
     -73.998559,
     40.75307
    ]
   },
   "properties": {
    "id": "ci-siamo",
    "name": "Ci Siamo",
    "address": "440 W 33rd St Suite #100, New York, NY 10001",
    "on_list_now": false,
    "periods": [
     "2023-07-13..2024-06-17"
    ],
    "period_count": 1
   }
  },
  {
   "type": "Feature",
   "geometry": {
    "type": "Point",
    "coordinates": [
     -73.986287,
     40.677442
    ]
   },
   "properties": {
    "id": "claro",
    "name": "Claro",
    "address": "284 3rd Ave Brooklyn, NY 11215",
    "on_list_now": false,
    "periods": [
     "2018-07-11..2019-08-15"
    ],
    "period_count": 1
   }
  },
  {
   "type": "Feature",
   "geometry": {
    "type": "Point",
    "coordinates": [
     -73.989683,
     40.730858
    ]
   },
   "properties": {
    "id": "claud",
    "name": "Claud",
    "address": "90 E 10th St, New York, NY, 10003, US",
    "on_list_now": true,
    "periods": [
     "2025-07-08..2026-09-21"
    ],
    "period_count": 1
   }
  },
  {
   "type": "Feature",
   "geometry": {
    "type": "Point",
    "coordinates": [
     -73.898574,
     40.889918
    ]
   },
   "properties": {
    "id": "claudy-s-empanadas",
    "name": "Claudy’s Empanadas",
    "address": "5981 Broadway, The Bronx, NY 10471",
    "on_list_now": false,
    "periods": [
     "2023-01-13..2023-03-21"
    ],
    "period_count": 1
   }
  },
  {
   "type": "Feature",
   "geometry": {
    "type": "Point",
    "coordinates": [
     -73.988757,
     40.740047
    ]
   },
   "properties": {
    "id": "coqodaq",
    "name": "Coqodaq",
    "address": "12 E 22nd St, New York, NY 10010",
    "on_list_now": true,
    "periods": [
     "2026-08-13..2026-09-21"
    ],
    "period_count": 1
   }
  },
  {
   "type": "Feature",
   "geometry": {
    "type": "Point",
    "coordinates": [
     -73.992332,
     40.714822
    ]
   },
   "properties": {
    "id": "corner-bar",
    "name": "Corner Bar",
    "address": "60 Canal St, New York, NY 10002",
    "on_list_now": false,
    "periods": [
     "2023-01-13..2023-03-21"
    ],
    "period_count": 1
   }
  },
  {
   "type": "Feature",
   "geometry": {
    "type": "Point",
    "coordinates": [
     -73.9883660914967,
     40.739345544549906
    ]
   },
   "properties": {
    "id": "cosme",
    "name": "Cosme",
    "address": "35 E 21st St New York, NY",
    "on_list_now": false,
    "periods": [
     "2017-08-05..2017-08-05"
    ],
    "period_count": 1
   }
  },
  {
   "type": "Feature",
   "geometry": {
    "type": "Point",
    "coordinates": [
     -74.026136,
     40.636156
    ]
   },
   "properties": {
    "id": "coszcal-de-allende",
    "name": "Coszcal De Allende",
    "address": "6824 3rd Ave, Brooklyn, NY 11220",
    "on_list_now": false,
    "periods": [
     "2021-06-14..2023-03-21"
    ],
    "period_count": 1
   }
  },
  {
   "type": "Feature",
   "geometry": {
    "type": "Point",
    "coordinates": [
     -73.991429,
     40.74099
    ]
   },
   "properties": {
    "id": "cote-korean-steakhouse",
    "name": "Cote Korean Steakhouse",
    "address": "16 W 22nd St New York, NY 10010",
    "on_list_now": false,
    "periods": [
     "2018-02-03..2019-08-15"
    ],
    "period_count": 1
   }
  },
  {
   "type": "Feature",
   "geometry": {
    "type": "Point",
    "coordinates": [
     -73.998614,
     40.676217
    ]
   },
   "properties": {
    "id": "court-street-grocers",
    "name": "Court Street Grocers",
    "address": "485 Court St Brooklyn, NY 11231",
    "on_list_now": false,
    "periods": [
     "2021-04-21..2021-04-24"
    ],
    "period_count": 1
   }
  },
  {
   "type": "Feature",
   "geometry": {
    "type": "Point",
    "coordinates": [
     -74.002692,
     40.72949
    ]
   },
   "properties": {
    "id": "crevette",
    "name": "Crevette",
    "address": "10 Downing St, New York, NY, 10014, US",
    "on_list_now": true,
    "periods": [
     "2026-07-10..2026-09-21"
    ],
    "period_count": 1
   }
  },
  {
   "type": "Feature",
   "geometry": {
    "type": "Point",
    "coordinates": [
     -74.00146,
     40.729049
    ]
   },
   "properties": {
    "id": "dame",
    "name": "Dame",
    "address": "87 MacDougal St, New York, NY 10012",
    "on_list_now": false,
    "periods": [
     "2022-01-22..2022-09-22"
    ],
    "period_count": 1
   }
  },
  {
   "type": "Feature",
   "geometry": {
    "type": "Point",
    "coordinates": [
     -74.140353,
     40.630176
    ]
   },
   "properties": {
    "id": "denino-s-pizzeria-and-tavern",
    "name": "Denino’s Pizzeria & Tavern",
    "address": "524 Port Richmond Ave Staten Island, NY 10302",
    "on_list_now": false,
    "periods": [
     "2020-11-21..2021-12-20"
    ],
    "period_count": 1
   }
  },
  {
   "type": "Feature",
   "geometry": {
    "type": "Point",
    "coordinates": [
     -73.950705,
     40.687197
    ]
   },
   "properties": {
    "id": "dept-of-culture",
    "name": "Dept of Culture",
    "address": "327 Nostrand Ave., Brooklyn, NY 11216",
    "on_list_now": false,
    "periods": [
     "2023-01-13..2023-10-03"
    ],
    "period_count": 1
   }
  },
  {
   "type": "Feature",
   "geometry": {
    "type": "Point",
    "coordinates": [
     -73.988044,
     40.717928
    ]
   },
   "properties": {
    "id": "dhamaka",
    "name": "Dhamaka",
    "address": "119 Delancey St, New York, NY 10002",
    "on_list_now": false,
    "periods": [
     "2021-06-14..2022-09-22",
     "2023-07-13..2023-11-28"
    ],
    "period_count": 2
   }
  },
  {
   "type": "Feature",
   "geometry": {
    "type": "Point",
    "coordinates": [
     -73.958256,
     40.729583
    ]
   },
   "properties": {
    "id": "di-an-di",
    "name": "Di An Di",
    "address": "68 Greenpoint Ave Brooklyn, NY 11222",
    "on_list_now": false,
    "periods": [
     "2019-04-17..2021-12-20"
    ],
    "period_count": 1
   }
  },
  {
   "type": "Feature",
   "geometry": {
    "type": "Point",
    "coordinates": [
     -73.888921,
     40.854302
    ]
   },
   "properties": {
    "id": "dominick-s",
    "name": "Dominick's",
    "address": "2335 Arthur Ave, The Bronx, NY 10458",
    "on_list_now": false,
    "periods": [
     "2023-01-13..2023-03-21"
    ],
    "period_count": 1
   }
  },
  {
   "type": "Feature",
   "geometry": {
    "type": "Point",
    "coordinates": [
     -74.002074,
     40.737812
    ]
   },
   "properties": {
    "id": "don-angie",
    "name": "Don Angie",
    "address": "103 Greenwich Ave, New York, NY 10014",
    "on_list_now": false,
    "periods": [
     "2024-07-11..2025-04-05"
    ],
    "period_count": 1
   }
  },
  {
   "type": "Feature",
   "geometry": {
    "type": "Point",
    "coordinates": [
     -73.985419,
     40.71428
    ]
   },
   "properties": {
    "id": "ernesto-s",
    "name": "Ernesto’s",
    "address": "259 E Broadway, New York, NY, 10002, US",
    "on_list_now": true,
    "periods": [
     "2021-06-14..2021-12-20",
     "2026-04-06..2026-09-21"
    ],
    "period_count": 2
   }
  },
  {
   "type": "Feature",
   "geometry": {
    "type": "Point",
    "coordinates": [
     -73.92875,
     40.706688
    ]
   },
   "properties": {
    "id": "falansai",
    "name": "Falansai",
    "address": "112 Harrison Pl, Brooklyn, NY 11237",
    "on_list_now": false,
    "periods": [
     "2021-06-14..2022-09-22"
    ],
    "period_count": 1
   }
  },
  {
   "type": "Feature",
   "geometry": {
    "type": "Point",
    "coordinates": [
     -73.977262,
     40.726717
    ]
   },
   "properties": {
    "id": "fiaschetteria-pistoia",
    "name": "Fiaschetteria \"Pistoia\"",
    "address": "647 E 11th St New York, NY 10009",
    "on_list_now": false,
    "periods": [
     "2019-10-23..2021-04-24"
    ],
    "period_count": 1
   }
  },
  {
   "type": "Feature",
   "geometry": {
    "type": "Point",
    "coordinates": [
     -73.950417,
     40.80161
    ]
   },
   "properties": {
    "id": "fieldtrip",
    "name": "Fieldtrip",
    "address": "109 Malcolm X Blvd New York, NY 10026",
    "on_list_now": false,
    "periods": [
     "2020-11-21..2021-10-11"
    ],
    "period_count": 1
   }
  },
  {
   "type": "Feature",
   "geometry": {
    "type": "Point",
    "coordinates": [
     -74.004899,
     40.718527
    ]
   },
   "properties": {
    "id": "file-gumbo-bar",
    "name": "Filé Gumbo Bar",
    "address": "275 Church St, New York, NY, 10013, US",
    "on_list_now": true,
    "periods": [
     "2026-04-06..2026-09-21"
    ],
    "period_count": 1
   }
  },
  {
   "type": "Feature",
   "geometry": {
    "type": "Point",
    "coordinates": [
     -73.992728,
     40.725732
    ]
   },
   "properties": {
    "id": "fish-cheeks",
    "name": "Fish Cheeks",
    "address": "55 Bond St New York, NY 10012",
    "on_list_now": false,
    "periods": [
     "2019-01-19..2020-11-12"
    ],
    "period_count": 1
   }
  },
  {
   "type": "Feature",
   "geometry": {
    "type": "Point",
    "coordinates": [
     -73.995018,
     40.717341
    ]
   },
   "properties": {
    "id": "flaming-kitchen",
    "name": "Flaming Kitchen",
    "address": "97 Bowery New York, NY 10002",
    "on_list_now": false,
    "periods": [
     "2018-02-03..2018-02-18"
    ],
    "period_count": 1
   }
  },
  {
   "type": "Feature",
   "geometry": {
    "type": "Point",
    "coordinates": [
     -74.005658,
     40.719617
    ]
   },
   "properties": {
    "id": "frenchette",
    "name": "Frenchette",
    "address": "241 W Broadway New York, NY 10013",
    "on_list_now": false,
    "periods": [
     "2019-01-19..2021-03-17"
    ],
    "period_count": 1
   }
  },
  {
   "type": "Feature",
   "geometry": {
    "type": "Point",
    "coordinates": [
     -73.987834,
     40.691327
    ]
   },
   "properties": {
    "id": "gage-and-tollner",
    "name": "Gage & Tollner",
    "address": "372 Fulton St Brooklyn, NY 11201",
    "on_list_now": false,
    "periods": [
     "2021-10-15..2022-06-16"
    ],
    "period_count": 1
   }
  },
  {
   "type": "Feature",
   "geometry": {
    "type": "Point",
    "coordinates": [
     -73.98391,
     40.762797
    ]
   },
   "properties": {
    "id": "gallaghers-steakhouse",
    "name": "Gallaghers Steakhouse",
    "address": "228 W 52nd St, New York, NY, 10019, US",
    "on_list_now": true,
    "periods": [
     "2023-07-13..2024-06-17",
     "2026-04-06..2026-09-21"
    ],
    "period_count": 2
   }
  },
  {
   "type": "Feature",
   "geometry": {
    "type": "Point",
    "coordinates": [
     -73.955631,
     40.712462
    ]
   },
   "properties": {
    "id": "gertie",
    "name": "Gertie",
    "address": "357 Grand St Brooklyn, NY 11211",
    "on_list_now": false,
    "periods": [
     "2019-12-05..2020-11-12"
    ],
    "period_count": 1
   }
  },
  {
   "type": "Feature",
   "geometry": {
    "type": "Point",
    "coordinates": [
     -73.994195,
     40.712427
    ]
   },
   "properties": {
    "id": "golden-diner",
    "name": "Golden Diner",
    "address": "123 Madison St Apt 2, New York, NY, 10002, US",
    "on_list_now": true,
    "periods": [
     "2020-11-21..2022-12-27",
     "2025-04-18..2026-09-21"
    ],
    "period_count": 2
   }
  },
  {
   "type": "Feature",
   "geometry": {
    "type": "Point",
    "coordinates": [
     -73.822538,
     40.754275
    ]
   },
   "properties": {
    "id": "golden-palace-gourmet",
    "name": "Golden Palace Gourmet",
    "address": "140-09 Cherry Ave, Queens, NY 11355",
    "on_list_now": false,
    "periods": [
     "2020-11-21..2023-03-21"
    ],
    "period_count": 1
   }
  },
  {
   "type": "Feature",
   "geometry": {
    "type": "Point",
    "coordinates": [
     -73.9883279800415,
     40.73857555787898
    ]
   },
   "properties": {
    "id": "gramercy-tavern",
    "name": "Gramercy Tavern",
    "address": "42 E 20th St New York, NY",
    "on_list_now": false,
    "periods": [
     "2017-08-05..2017-08-05"
    ],
    "period_count": 1
   }
  },
  {
   "type": "Feature",
   "geometry": {
    "type": "Point",
    "coordinates": [
     -73.977314,
     40.752579
    ]
   },
   "properties": {
    "id": "grand-central-oyster-bar",
    "name": "Grand Central Oyster Bar",
    "address": "89 East 42nd Street, Manhattan, NY, 10017",
    "on_list_now": false,
    "periods": [
     "2023-03-28..2026-07-09"
    ],
    "period_count": 1
   }
  },
  {
   "type": "Feature",
   "geometry": {
    "type": "Point",
    "coordinates": [
     -73.997177,
     40.71504
    ]
   },
   "properties": {
    "id": "great-ny-noodletown",
    "name": "Great NY Noodletown",
    "address": "28 Bowery, New York, NY 10013",
    "on_list_now": false,
    "periods": [
     "2022-10-13..2023-11-28"
    ],
    "period_count": 1
   }
  },
  {
   "type": "Feature",
   "geometry": {
    "type": "Point",
    "coordinates": [
     -73.915995,
     40.776296
    ]
   },
   "properties": {
    "id": "gregory-s-26-corner-taverna",
    "name": "Gregory's 26 Corner Taverna",
    "address": "26-02 23rd Ave Long Island City, NY 11105",
    "on_list_now": false,
    "periods": [
     "2018-07-11..2020-11-12"
    ],
    "period_count": 1
   }
  },
  {
   "type": "Feature",
   "geometry": {
    "type": "Point",
    "coordinates": [
     -73.981035,
     40.675159
    ]
   },
   "properties": {
    "id": "haenyeo",
    "name": "Haenyeo",
    "address": "239 5th Ave Brooklyn, NY 11215",
    "on_list_now": false,
    "periods": [
     "2019-07-21..2022-04-07"
    ],
    "period_count": 1
   }
  },
  {
   "type": "Feature",
   "geometry": {
    "type": "Point",
    "coordinates": [
     -73.82771,
     40.76124
    ]
   },
   "properties": {
    "id": "haidilao-hot-pot",
    "name": "Haidilao Hot Pot",
    "address": "138-23 39th Ave, Queens, NY 11354",
    "on_list_now": false,
    "periods": [
     "2020-03-18..2020-11-12",
     "2023-01-13..2023-11-28"
    ],
    "period_count": 2
   }
  },
  {
   "type": "Feature",
   "geometry": {
    "type": "Point",
    "coordinates": [
     -74.00257,
     40.728013
    ]
   },
   "properties": {
    "id": "hamburger-america",
    "name": "Hamburger America",
    "address": "155 West Houston Street, New York, NY 10012",
    "on_list_now": true,
    "periods": [
     "2024-07-11..2026-09-21"
    ],
    "period_count": 1
   }
  },
  {
   "type": "Feature",
   "geometry": {
    "type": "Point",
    "coordinates": [
     -73.983518,
     40.727034
    ]
   },
   "properties": {
    "id": "hanoi-house",
    "name": "Hanoi House",
    "address": "119 St Marks Pl New York, NY 10009",
    "on_list_now": false,
    "periods": [
     "2018-02-03..2018-10-03"
    ],
    "period_count": 1
   }
  },
  {
   "type": "Feature",
   "geometry": {
    "type": "Point",
    "coordinates": [
     -73.964679,
     40.801346
    ]
   },
   "properties": {
    "id": "happy-hot-hunan",
    "name": "Happy Hot Hunan",
    "address": "969 Amsterdam Ave New York, NY 10025",
    "on_list_now": false,
    "periods": [
     "2021-04-21..2021-04-24"
    ],
    "period_count": 1
   }
  },
  {
   "type": "Feature",
   "geometry": {
    "type": "Point",
    "coordinates": [
     -73.984758,
     40.74624
    ]
   },
   "properties": {
    "id": "her-name-is-han",
    "name": "Her Name is Han",
    "address": "17 E 31st St New York, NY 10016",
    "on_list_now": false,
    "periods": [
     "2018-07-11..2019-05-28"
    ],
    "period_count": 1
   }
  },
  {
   "type": "Feature",
   "geometry": {
    "type": "Point",
    "coordinates": [
     -73.984825,
     40.726288
    ]
   },
   "properties": {
    "id": "ho-foods",
    "name": "Ho Foods",
    "address": "110 E 7th St, New York, NY, 10009, US",
    "on_list_now": false,
    "periods": [
     "2023-03-28..2023-05-30",
     "2024-10-10..2026-03-14"
    ],
    "period_count": 2
   }
  },
  {
   "type": "Feature",
   "geometry": {
    "type": "Point",
    "coordinates": [
     -74.01620149612425,
     40.67492612403677
    ]
   },
   "properties": {
    "id": "hometown-bar-b-que",
    "name": "Hometown Bar-B-Que",
    "address": "454 Van Brunt St, Brooklyn, NY 11231",
    "on_list_now": false,
    "periods": [
     "2017-08-05..2021-03-17",
     "2022-10-13..2024-03-17"
    ],
    "period_count": 2
   }
  },
  {
   "type": "Feature",
   "geometry": {
    "type": "Point",
    "coordinates": [
     -73.927653,
     40.807112
    ]
   },
   "properties": {
    "id": "hudson-smokehouse",
    "name": "Hudson Smokehouse",
    "address": "37 Bruckner Blvd, Bronx, NY 10454",
    "on_list_now": false,
    "periods": [
     "2021-06-14..2022-09-22"
    ],
    "period_count": 1
   }
  },
  {
   "type": "Feature",
   "geometry": {
    "type": "Point",
    "coordinates": [
     -73.981079,
     40.74486
    ]
   },
   "properties": {
    "id": "hyderabadi-zaiqa",
    "name": "Hyderabadi Zaiqa",
    "address": "184 Lexington Ave # 10016, New York, NY, 10016, US",
    "on_list_now": true,
    "periods": [
     "2024-01-13..2026-09-21"
    ],
    "period_count": 1
   }
  },
  {
   "type": "Feature",
   "geometry": {
    "type": "Point",
    "coordinates": [
     -74.004053,
     40.732789
    ]
   },
   "properties": {
    "id": "i-sodi",
    "name": "I Sodi",
    "address": "105 Christopher St (at Bleecker St), New York, NY 10014",
    "on_list_now": false,
    "periods": [
     "2017-08-05..2018-10-03",
     "2022-10-13..2022-12-27",
     "2025-01-15..2025-07-02"
    ],
    "period_count": 3
   }
  },
  {
   "type": "Feature",
   "geometry": {
    "type": "Point",
    "coordinates": [
     -73.9787874855538,
     40.76422134626763
    ]
   },
   "properties": {
    "id": "indian-accent",
    "name": "Indian Accent",
    "address": "123 W 56th St New York, NY",
    "on_list_now": false,
    "periods": [
     "2017-08-05..2018-02-18"
    ],
    "period_count": 1
   }
  },
  {
   "type": "Feature",
   "geometry": {
    "type": "Point",
    "coordinates": [
     -73.994406,
     40.686036
    ]
   },
   "properties": {
    "id": "indian-table",
    "name": "Indian Table",
    "address": "234 Court St Brooklyn, NY 11201",
    "on_list_now": false,
    "periods": [
     "2021-10-15..2022-04-07"
    ],
    "period_count": 1
   }
  },
  {
   "type": "Feature",
   "geometry": {
    "type": "Point",
    "coordinates": [
     -74.007233,
     40.733042
    ]
   },
   "properties": {
    "id": "jeju-noodle-bar",
    "name": "Jeju Noodle Bar",
    "address": "679 Greenwich St New York, NY 10014",
    "on_list_now": false,
    "periods": [
     "2020-11-21..2021-04-24"
    ],
    "period_count": 1
   }
  },
  {
   "type": "Feature",
   "geometry": {
    "type": "Point",
    "coordinates": [
     -73.996746,
     40.715969
    ]
   },
   "properties": {
    "id": "jing-fong",
    "name": "Jing Fong",
    "address": "20 Elizabeth St New York, NY 10013",
    "on_list_now": false,
    "periods": [
     "2020-11-21..2021-03-17"
    ],
    "period_count": 1
   }
  },
  {
   "type": "Feature",
   "geometry": {
    "type": "Point",
    "coordinates": [
     -73.98817703639,
     40.748289015143
    ]
   },
   "properties": {
    "id": "jongro-bbq",
    "name": "Jongro BBQ",
    "address": "22 W 32nd St (btwn Broadway & 5th Ave), New York, NY 10001",
    "on_list_now": false,
    "periods": [
     "2018-02-03..2018-02-18",
     "2024-07-11..2025-04-05"
    ],
    "period_count": 2
   }
  },
  {
   "type": "Feature",
   "geometry": {
    "type": "Point",
    "coordinates": [
     -73.986931,
     40.747534
    ]
   },
   "properties": {
    "id": "jongro-gopchang",
    "name": "Jongro Gopchang",
    "address": "22 W 32nd St, New York, NY 10001",
    "on_list_now": false,
    "periods": [
     "2024-01-13..2024-03-17"
    ],
    "period_count": 1
   }
  },
  {
   "type": "Feature",
   "geometry": {
    "type": "Point",
    "coordinates": [
     -73.987828,
     40.7397
    ]
   },
   "properties": {
    "id": "jua",
    "name": "Jua",
    "address": "36 E 22nd St, New York, NY 10010",
    "on_list_now": false,
    "periods": [
     "2021-10-15..2022-12-27"
    ],
    "period_count": 1
   }
  },
  {
   "type": "Feature",
   "geometry": {
    "type": "Point",
    "coordinates": [
     -73.991637,
     40.724839
    ]
   },
   "properties": {
    "id": "kabawa",
    "name": "Kabawa",
    "address": "8 Extra Pl, New York, NY, 10003, US",
    "on_list_now": true,
    "periods": [
     "2026-01-13..2026-09-21"
    ],
    "period_count": 1
   }
  },
  {
   "type": "Feature",
   "geometry": {
    "type": "Point",
    "coordinates": [
     -73.991245,
     40.737271
    ]
   },
   "properties": {
    "id": "kanyakumari",
    "name": "Kanyakumari",
    "address": "20 East 17th Street, New York, New York 10003",
    "on_list_now": false,
    "periods": [
     "2024-10-10..2025-07-02"
    ],
    "period_count": 1
   }
  },
  {
   "type": "Feature",
   "geometry": {
    "type": "Point",
    "coordinates": [
     -73.955285,
     40.577856
    ]
   },
   "properties": {
    "id": "kashkar-cafe",
    "name": "Kashkar Cafe",
    "address": "1141 Brighton Beach Ave, Brooklyn, NY 11235",
    "on_list_now": false,
    "periods": [
     "2021-04-21..2023-03-21"
    ],
    "period_count": 1
   }
  },
  {
   "type": "Feature",
   "geometry": {
    "type": "Point",
    "coordinates": [
     -73.98735165596008,
     40.72230706635953
    ]
   },
   "properties": {
    "id": "katz-s-delicatessen",
    "name": "Katz's Delicatessen",
    "address": "205 E Houston St (at Ludlow St), New York, NY 10002",
    "on_list_now": false,
    "periods": [
     "2017-08-05..2021-12-20",
     "2022-08-11..2022-09-22",
     "2023-03-28..2025-04-05"
    ],
    "period_count": 3
   }
  },
  {
   "type": "Feature",
   "geometry": {
    "type": "Point",
    "coordinates": [
     -73.986519,
     40.750711
    ]
   },
   "properties": {
    "id": "keens-steakhouse",
    "name": "Keens Steakhouse",
    "address": "72 W 36th St, New York, NY, 10018, US",
    "on_list_now": false,
    "periods": [
     "2023-03-28..2023-05-30",
     "2024-07-11..2026-03-14"
    ],
    "period_count": 2
   }
  },
  {
   "type": "Feature",
   "geometry": {
    "type": "Point",
    "coordinates": [
     -74.237111,
     40.538496
    ]
   },
   "properties": {
    "id": "killmeyer-s",
    "name": "Killmeyer's",
    "address": "4254 Arthur Kill Rd, Staten Island, NY 10309",
    "on_list_now": false,
    "periods": [
     "2022-01-22..2023-03-21"
    ],
    "period_count": 1
   }
  },
  {
   "type": "Feature",
   "geometry": {
    "type": "Point",
    "coordinates": [
     -73.859699,
     40.888646
    ]
   },
   "properties": {
    "id": "kingston-tropical-bakery",
    "name": "Kingston Tropical Bakery",
    "address": "4000 White Plains Rd, Bronx, NY 10466",
    "on_list_now": false,
    "periods": [
     "2022-04-26..2023-03-21"
    ],
    "period_count": 1
   }
  },
  {
   "type": "Feature",
   "geometry": {
    "type": "Point",
    "coordinates": [
     -73.989071,
     40.722694
    ]
   },
   "properties": {
    "id": "kisa",
    "name": "Kisa",
    "address": "205 Allen Street, New York, New York 10002",
    "on_list_now": false,
    "periods": [
     "2025-01-15..2025-09-29"
    ],
    "period_count": 1
   }
  },
  {
   "type": "Feature",
   "geometry": {
    "type": "Point",
    "coordinates": [
     -73.988135,
     40.745664
    ]
   },
   "properties": {
    "id": "koloman",
    "name": "Koloman",
    "address": "16 W 29th St, New York, NY 10001",
    "on_list_now": false,
    "periods": [
     "2023-01-13..2025-01-06"
    ],
    "period_count": 1
   }
  },
  {
   "type": "Feature",
   "geometry": {
    "type": "Point",
    "coordinates": [
     -73.990896,
     40.713791
    ]
   },
   "properties": {
    "id": "kopitiam",
    "name": "Kopitiam",
    "address": "151 E Broadway, New York, NY 10002",
    "on_list_now": false,
    "periods": [
     "2019-01-19..2021-03-17",
     "2023-03-28..2023-05-30"
    ],
    "period_count": 2
   }
  },
  {
   "type": "Feature",
   "geometry": {
    "type": "Point",
    "coordinates": [
     -73.921475,
     40.810579
    ]
   },
   "properties": {
    "id": "la-morada",
    "name": "La Morada",
    "address": "308 Willis Ave The Bronx, NY 10454",
    "on_list_now": false,
    "periods": [
     "2019-10-23..2021-04-24"
    ],
    "period_count": 1
   }
  },
  {
   "type": "Feature",
   "geometry": {
    "type": "Point",
    "coordinates": [
     -73.90649,
     40.815576
    ]
   },
   "properties": {
    "id": "la-pirana-lechonera",
    "name": "La Piraña Lechonera",
    "address": "766 E 152nd St, Bronx, NY, 10455, US",
    "on_list_now": true,
    "periods": [
     "2025-10-08..2026-09-21"
    ],
    "period_count": 1
   }
  },
  {
   "type": "Feature",
   "geometry": {
    "type": "Point",
    "coordinates": [
     -73.99553968946574,
     40.687824212725424
    ]
   },
   "properties": {
    "id": "la-vara",
    "name": "La Vara",
    "address": "268 Clinton St, Brooklyn, NY 11201",
    "on_list_now": false,
    "periods": [
     "2017-08-05..2019-12-05",
     "2022-10-13..2023-03-21"
    ],
    "period_count": 2
   }
  },
  {
   "type": "Feature",
   "geometry": {
    "type": "Point",
    "coordinates": [
     -73.981758,
     40.761421
    ]
   },
   "properties": {
    "id": "le-bernardin",
    "name": "Le Bernardin",
    "address": "155 West 51st Street, New York, New York 10019",
    "on_list_now": true,
    "periods": [
     "2020-03-18..2020-11-12",
     "2023-03-28..2026-09-21"
    ],
    "period_count": 2
   }
  },
  {
   "type": "Feature",
   "geometry": {
    "type": "Point",
    "coordinates": [
     -74.000061,
     40.719052
    ]
   },
   "properties": {
    "id": "le-coucou",
    "name": "Le Coucou",
    "address": "138 Lafayette St New York, NY",
    "on_list_now": false,
    "periods": [
     "2017-08-05..2019-05-28"
    ],
    "period_count": 1
   }
  },
  {
   "type": "Feature",
   "geometry": {
    "type": "Point",
    "coordinates": [
     -74.006899,
     40.711199
    ]
   },
   "properties": {
    "id": "le-gratin",
    "name": "Le Gratin",
    "address": "5 Beekman St, New York, NY 10038",
    "on_list_now": false,
    "periods": [
     "2024-10-10..2025-01-06"
    ],
    "period_count": 1
   }
  },
  {
   "type": "Feature",
   "geometry": {
    "type": "Point",
    "coordinates": [
     -73.968103,
     40.763208
    ]
   },
   "properties": {
    "id": "le-veau-d-or",
    "name": "Le Veau d’Or",
    "address": "129 E 60th St, New York, NY 10022",
    "on_list_now": true,
    "periods": [
     "2025-01-15..2026-09-21"
    ],
    "period_count": 1
   }
  },
  {
   "type": "Feature",
   "geometry": {
    "type": "Point",
    "coordinates": [
     -73.998267,
     40.714576
    ]
   },
   "properties": {
    "id": "lei",
    "name": "Lei",
    "address": "15 - 17 Doyers St, New York, NY, 10013, US",
    "on_list_now": true,
    "periods": [
     "2026-04-06..2026-09-21"
    ],
    "period_count": 1
   }
  },
  {
   "type": "Feature",
   "geometry": {
    "type": "Point",
    "coordinates": [
     -73.90959,
     40.885298
    ]
   },
   "properties": {
    "id": "liebman-s-deli",
    "name": "Liebman’s Deli",
    "address": "552 W 235th St (Johnson Ave), Bronx, NY 10463",
    "on_list_now": false,
    "periods": [
     "2019-10-23..2020-11-12",
     "2022-01-22..2022-06-16",
     "2024-01-13..2025-04-05"
    ],
    "period_count": 3
   }
  },
  {
   "type": "Feature",
   "geometry": {
    "type": "Point",
    "coordinates": [
     -73.952412,
     40.71755
    ]
   },
   "properties": {
    "id": "lilia",
    "name": "Lilia",
    "address": "567 Union Ave, Brooklyn, NY, 11211, US",
    "on_list_now": true,
    "periods": [
     "2017-08-05..2018-10-03",
     "2025-07-08..2026-09-21"
    ],
    "period_count": 2
   }
  },
  {
   "type": "Feature",
   "geometry": {
    "type": "Point",
    "coordinates": [
     -74.00585353374481,
     40.74222952697974
    ]
   },
   "properties": {
    "id": "los-tacos-no-1",
    "name": "Los Tacos No.1",
    "address": "75 9th Ave, New York, NY 10011",
    "on_list_now": false,
    "periods": [
     "2017-08-05..2020-11-12",
     "2023-03-28..2023-05-30"
    ],
    "period_count": 2
   }
  },
  {
   "type": "Feature",
   "geometry": {
    "type": "Point",
    "coordinates": [
     -73.99840235710144,
     40.72463457437033
    ]
   },
   "properties": {
    "id": "lure-fishbar",
    "name": "Lure Fishbar",
    "address": "142 Mercer St New York, NY",
    "on_list_now": false,
    "periods": [
     "2017-08-05..2017-08-05"
    ],
    "period_count": 1
   }
  },
  {
   "type": "Feature",
   "geometry": {
    "type": "Point",
    "coordinates": [
     -73.95787,
     40.711605
    ]
   },
   "properties": {
    "id": "l-industrie-pizzeria",
    "name": "L’Industrie Pizzeria",
    "address": "254 S 2nd St Side, Brooklyn, NY, 11211, US",
    "on_list_now": false,
    "periods": [
     "2022-01-22..2026-07-09"
    ],
    "period_count": 1
   }
  },
  {
   "type": "Feature",
   "geometry": {
    "type": "Point",
    "coordinates": [
     -73.986105,
     40.72927
    ]
   },
   "properties": {
    "id": "madame-vo",
    "name": "Madame Vo",
    "address": "212 E 10th St New York, NY 10003",
    "on_list_now": false,
    "periods": [
     "2019-01-19..2019-02-02"
    ],
    "period_count": 1
   }
  },
  {
   "type": "Feature",
   "geometry": {
    "type": "Point",
    "coordinates": [
     -73.992188,
     40.749981
    ]
   },
   "properties": {
    "id": "madison-square-garden",
    "name": "Madison Square Garden",
    "address": "4 Penn Plz New York, NY 10121",
    "on_list_now": false,
    "periods": [
     "2018-02-03..2018-02-18"
    ],
    "period_count": 1
   }
  },
  {
   "type": "Feature",
   "geometry": {
    "type": "Point",
    "coordinates": [
     -73.917671,
     40.746652
    ]
   },
   "properties": {
    "id": "makina-cafe-ethiopian-eritrean-eatery",
    "name": "Makina Cafe Ethiopian-Eritrean Eatery",
    "address": "46-11 Skillman Avenue Sunnyside, Queens 11104",
    "on_list_now": true,
    "periods": [
     "2026-07-10..2026-09-21"
    ],
    "period_count": 1
   }
  },
  {
   "type": "Feature",
   "geometry": {
    "type": "Point",
    "coordinates": [
     -73.938894,
     40.846512
    ]
   },
   "properties": {
    "id": "malecon",
    "name": "Malecon",
    "address": "4141 Broadway, New York, NY 10033",
    "on_list_now": false,
    "periods": [
     "2022-10-13..2023-03-21"
    ],
    "period_count": 1
   }
  },
  {
   "type": "Feature",
   "geometry": {
    "type": "Point",
    "coordinates": [
     -73.981175,
     40.767339
    ]
   },
   "properties": {
    "id": "marea",
    "name": "Marea",
    "address": "240 Central Park S, New York, NY 10019",
    "on_list_now": false,
    "periods": [
     "2022-10-13..2023-03-21"
    ],
    "period_count": 1
   }
  },
  {
   "type": "Feature",
   "geometry": {
    "type": "Point",
    "coordinates": [
     -73.888453,
     40.854135
    ]
   },
   "properties": {
    "id": "mario-s",
    "name": "Mario's",
    "address": "2342 Arthur Ave The Bronx, NY 10458",
    "on_list_now": false,
    "periods": [
     "2020-11-21..2021-03-17"
    ],
    "period_count": 1
   }
  },
  {
   "type": "Feature",
   "geometry": {
    "type": "Point",
    "coordinates": [
     -73.878107,
     40.748444
    ]
   },
   "properties": {
    "id": "mariscos-el-submarino",
    "name": "Mariscos El Submarino",
    "address": "8805 Roosevelt Ave, Queens, NY 11372",
    "on_list_now": false,
    "periods": [
     "2021-10-15..2023-03-21",
     "2023-07-13..2025-01-06"
    ],
    "period_count": 2
   }
  },
  {
   "type": "Feature",
   "geometry": {
    "type": "Point",
    "coordinates": [
     -73.967186,
     40.713402
    ]
   },
   "properties": {
    "id": "misi",
    "name": "Misi",
    "address": "329 Kent Ave (at S 4th St), Brooklyn, NY 11249",
    "on_list_now": false,
    "periods": [
     "2023-03-28..2025-07-02"
    ],
    "period_count": 1
   }
  },
  {
   "type": "Feature",
   "geometry": {
    "type": "Point",
    "coordinates": [
     -73.972385,
     40.689449
    ]
   },
   "properties": {
    "id": "miss-ada",
    "name": "Miss Ada",
    "address": "184 Dekalb Ave Brooklyn, NY 11205",
    "on_list_now": false,
    "periods": [
     "2019-10-23..2021-12-20"
    ],
    "period_count": 1
   }
  },
  {
   "type": "Feature",
   "geometry": {
    "type": "Point",
    "coordinates": [
     -73.9842454555664,
     40.729110403548944
    ]
   },
   "properties": {
    "id": "momofuku-noodle-bar",
    "name": "Momofuku Noodle Bar",
    "address": "171 1st Ave New York, NY",
    "on_list_now": false,
    "periods": [
     "2017-08-05..2017-08-05"
    ],
    "period_count": 1
   }
  },
  {
   "type": "Feature",
   "geometry": {
    "type": "Point",
    "coordinates": [
     -74.001097,
     40.72959
    ]
   },
   "properties": {
    "id": "monte-s-trattoria",
    "name": "Monte's Trattoria",
    "address": "97 MacDougal St (Bleecker), New York, NY 10012",
    "on_list_now": false,
    "periods": [
     "2024-07-11..2024-10-07"
    ],
    "period_count": 1
   }
  },
  {
   "type": "Feature",
   "geometry": {
    "type": "Point",
    "coordinates": [
     -73.980559,
     40.756933
    ]
   },
   "properties": {
    "id": "mala-project",
    "name": "MáLà Project",
    "address": "41 West 46th St New York, NY 10036",
    "on_list_now": false,
    "periods": [
     "2018-07-11..2018-10-03"
    ],
    "period_count": 1
   }
  },
  {
   "type": "Feature",
   "geometry": {
    "type": "Point",
    "coordinates": [
     -73.993312,
     40.717026
    ]
   },
   "properties": {
    "id": "mam",
    "name": "Mắm",
    "address": "70 Forsyth Street, New York, New York 10002",
    "on_list_now": true,
    "periods": [
     "2024-04-09..2026-09-21"
    ],
    "period_count": 1
   }
  },
  {
   "type": "Feature",
   "geometry": {
    "type": "Point",
    "coordinates": [
     -73.890824,
     40.747049
    ]
   },
   "properties": {
    "id": "nepali-bhanchha-ghar",
    "name": "Nepali Bhanchha Ghar",
    "address": "7415 Roosevelt Ave, Jackson Heights, NY, 11372, US",
    "on_list_now": true,
    "periods": [
     "2022-01-22..2023-03-21",
     "2024-01-13..2026-09-21"
    ],
    "period_count": 2
   }
  },
  {
   "type": "Feature",
   "geometry": {
    "type": "Point",
    "coordinates": [
     -73.98695429583053,
     40.747899752227816
    ]
   },
   "properties": {
    "id": "new-wonjo",
    "name": "New Wonjo",
    "address": "23 W 32nd St New York, NY",
    "on_list_now": false,
    "periods": [
     "2017-08-05..2017-08-05"
    ],
    "period_count": 1
   }
  },
  {
   "type": "Feature",
   "geometry": {
    "type": "Point",
    "coordinates": [
     -73.829205,
     40.759358
    ]
   },
   "properties": {
    "id": "new-world-mall",
    "name": "New World Mall",
    "address": "136-20 Roosevelt Ave, Queens, NY 11354",
    "on_list_now": false,
    "periods": [
     "2022-10-13..2023-03-21"
    ],
    "period_count": 1
   }
  },
  {
   "type": "Feature",
   "geometry": {
    "type": "Point",
    "coordinates": [
     -73.988105,
     40.744803
    ]
   },
   "properties": {
    "id": "noda",
    "name": "Noda",
    "address": "6 W 28th St New York, NY 10001",
    "on_list_now": false,
    "periods": [
     "2019-07-21..2019-12-05"
    ],
    "period_count": 1
   }
  },
  {
   "type": "Feature",
   "geometry": {
    "type": "Point",
    "coordinates": [
     -74.006571,
     40.743844
    ]
   },
   "properties": {
    "id": "noz-17",
    "name": "Noz 17",
    "address": "458 W 17th St, New York, NY 10011",
    "on_list_now": false,
    "periods": [
     "2023-03-28..2023-11-28"
    ],
    "period_count": 1
   }
  },
  {
   "type": "Feature",
   "geometry": {
    "type": "Point",
    "coordinates": [
     -73.957909,
     40.773779
    ]
   },
   "properties": {
    "id": "noz-market",
    "name": "Noz Market",
    "address": "1374 3rd Ave, New York, NY, 10075, US",
    "on_list_now": true,
    "periods": [
     "2025-04-18..2026-09-21"
    ],
    "period_count": 1
   }
  },
  {
   "type": "Feature",
   "geometry": {
    "type": "Point",
    "coordinates": [
     -73.998873,
     40.730451
    ]
   },
   "properties": {
    "id": "ny-dosas",
    "name": "NY Dosas",
    "address": "50 Washington Square S, New York, NY 10012",
    "on_list_now": false,
    "periods": [
     "2020-11-21..2023-05-30"
    ],
    "period_count": 1
   }
  },
  {
   "type": "Feature",
   "geometry": {
    "type": "Point",
    "coordinates": [
     -74.00810144732247,
     40.71700358931347
    ]
   },
   "properties": {
    "id": "odeon",
    "name": "Odeon",
    "address": "145 West Broadway, New York, New York 10013",
    "on_list_now": false,
    "periods": [
     "2017-08-05..2017-08-05",
     "2024-01-13..2024-10-07"
    ],
    "period_count": 2
   }
  },
  {
   "type": "Feature",
   "geometry": {
    "type": "Point",
    "coordinates": [
     -73.917119,
     40.702697
    ]
   },
   "properties": {
    "id": "ops",
    "name": "Ops",
    "address": "346 Himrod St Brooklyn, NY 11237",
    "on_list_now": false,
    "periods": [
     "2019-01-19..2021-12-20"
    ],
    "period_count": 1
   }
  },
  {
   "type": "Feature",
   "geometry": {
    "type": "Point",
    "coordinates": [
     -73.917952,
     40.832521
    ]
   },
   "properties": {
    "id": "papaye",
    "name": "Papaye",
    "address": "196 McClellan St, Bronx, NY 10456",
    "on_list_now": false,
    "periods": [
     "2023-03-28..2023-11-28"
    ],
    "period_count": 1
   }
  },
  {
   "type": "Feature",
   "geometry": {
    "type": "Point",
    "coordinates": [
     -73.959106,
     40.774363
    ]
   },
   "properties": {
    "id": "pastrami-queen",
    "name": "Pastrami Queen",
    "address": "1125 Lexington Ave # 2, New York, NY 10075",
    "on_list_now": false,
    "periods": [
     "2023-01-13..2023-03-21"
    ],
    "period_count": 1
   }
  },
  {
   "type": "Feature",
   "geometry": {
    "type": "Point",
    "coordinates": [
     -73.93450965907283,
     40.79708774312914
    ]
   },
   "properties": {
    "id": "patsy-s-pizza-east-harlem",
    "name": "Patsy's Pizza - East Harlem",
    "address": "2287 1st Ave New York, NY",
    "on_list_now": false,
    "periods": [
     "2017-08-05..2017-08-05"
    ],
    "period_count": 1
   }
  },
  {
   "type": "Feature",
   "geometry": {
    "type": "Point",
    "coordinates": [
     -73.943661,
     40.683401
    ]
   },
   "properties": {
    "id": "peaches-hothouse",
    "name": "Peaches HotHouse",
    "address": "415 Tompkins Ave Brooklyn, NY 11216",
    "on_list_now": false,
    "periods": [
     "2021-01-22..2021-10-11"
    ],
    "period_count": 1
   }
  },
  {
   "type": "Feature",
   "geometry": {
    "type": "Point",
    "coordinates": [
     -73.960013,
     40.654904
    ]
   },
   "properties": {
    "id": "peppa-s",
    "name": "Peppa's",
    "address": "738 Flatbush Ave, Brooklyn, NY 11226",
    "on_list_now": false,
    "periods": [
     "2018-07-11..2022-12-27"
    ],
    "period_count": 1
   }
  },
  {
   "type": "Feature",
   "geometry": {
    "type": "Point",
    "coordinates": [
     -73.96247578387509,
     40.71004419200894
    ]
   },
   "properties": {
    "id": "peter-luger-steak-house",
    "name": "Peter Luger Steak House",
    "address": "178 Broadway Brooklyn, NY",
    "on_list_now": false,
    "periods": [
     "2017-08-05..2020-11-12"
    ],
    "period_count": 1
   }
  },
  {
   "type": "Feature",
   "geometry": {
    "type": "Point",
    "coordinates": [
     -73.998537,
     40.714448
    ]
   },
   "properties": {
    "id": "ping-seafood-restaurant",
    "name": "Ping Seafood Restaurant",
    "address": "22 Mott St New York, NY 10013",
    "on_list_now": false,
    "periods": [
     "2018-07-11..2018-10-03"
    ],
    "period_count": 1
   }
  },
  {
   "type": "Feature",
   "geometry": {
    "type": "Point",
    "coordinates": [
     -73.893796,
     40.746404
    ]
   },
   "properties": {
    "id": "playground",
    "name": "Playground",
    "address": "71-30 Roosevelt Ave, Jackson Heights, NY 11372",
    "on_list_now": false,
    "periods": [
     "2022-04-26..2022-09-22"
    ],
    "period_count": 1
   }
  },
  {
   "type": "Feature",
   "geometry": {
    "type": "Point",
    "coordinates": [
     -73.993309,
     40.733948
    ]
   },
   "properties": {
    "id": "pranakhon",
    "name": "Pranakhon",
    "address": "88 University Pl, New York, NY 10003",
    "on_list_now": false,
    "periods": [
     "2023-10-13..2023-11-28"
    ],
    "period_count": 1
   }
  },
  {
   "type": "Feature",
   "geometry": {
    "type": "Point",
    "coordinates": [
     -73.989374,
     40.723929
    ]
   },
   "properties": {
    "id": "prune",
    "name": "Prune",
    "address": "54 E 1st St # 1 New York, NY 10003",
    "on_list_now": false,
    "periods": [
     "2018-02-03..2018-02-18"
    ],
    "period_count": 1
   }
  },
  {
   "type": "Feature",
   "geometry": {
    "type": "Point",
    "coordinates": [
     -74.001938,
     40.745211
    ]
   },
   "properties": {
    "id": "qanoon-restaurant",
    "name": "Qanoon Restaurant",
    "address": "180 9th Ave New York, NY 10011",
    "on_list_now": false,
    "periods": [
     "2020-11-21..2021-04-24"
    ],
    "period_count": 1
   }
  },
  {
   "type": "Feature",
   "geometry": {
    "type": "Point",
    "coordinates": [
     -73.986671,
     40.726488
    ]
   },
   "properties": {
    "id": "raku",
    "name": "Raku",
    "address": "342 E 6th St, New York, NY 10003",
    "on_list_now": false,
    "periods": [
     "2023-03-28..2025-01-06"
    ],
    "period_count": 1
   }
  },
  {
   "type": "Feature",
   "geometry": {
    "type": "Point",
    "coordinates": [
     -73.956709,
     40.673417
    ]
   },
   "properties": {
    "id": "ras-plant-based",
    "name": "Ras Plant Based",
    "address": "739 Franklin Ave Brooklyn, NY 11238",
    "on_list_now": false,
    "periods": [
     "2021-06-14..2021-10-11"
    ],
    "period_count": 1
   }
  },
  {
   "type": "Feature",
   "geometry": {
    "type": "Point",
    "coordinates": [
     -74.012083,
     40.677876
    ]
   },
   "properties": {
    "id": "red-hook-tavern",
    "name": "Red Hook Tavern",
    "address": "329 Van Brunt St, Brooklyn, NY, 11231, US",
    "on_list_now": false,
    "periods": [
     "2025-10-08..2026-07-09"
    ],
    "period_count": 1
   }
  },
  {
   "type": "Feature",
   "geometry": {
    "type": "Point",
    "coordinates": [
     -73.966393,
     40.766483
    ]
   },
   "properties": {
    "id": "restaurant-daniel",
    "name": "Restaurant Daniel",
    "address": "60 E 65th St, New York, NY, 10065, US",
    "on_list_now": false,
    "periods": [
     "2025-10-08..2026-03-14"
    ],
    "period_count": 1
   }
  },
  {
   "type": "Feature",
   "geometry": {
    "type": "Point",
    "coordinates": [
     -73.989033,
     40.739105
    ]
   },
   "properties": {
    "id": "rezdora",
    "name": "Rezdôra",
    "address": "27 E 20th St New York, NY 10003",
    "on_list_now": false,
    "periods": [
     "2020-03-18..2021-03-17"
    ],
    "period_count": 1
   }
  },
  {
   "type": "Feature",
   "geometry": {
    "type": "Point",
    "coordinates": [
     -73.888434,
     40.853763
    ]
   },
   "properties": {
    "id": "roberto-s",
    "name": "Roberto’s",
    "address": "603 Crescent Avenue, The Bronx, NY 10458",
    "on_list_now": false,
    "periods": [
     "2017-08-05..2019-08-15",
     "2023-03-28..2025-09-29"
    ],
    "period_count": 2
   }
  },
  {
   "type": "Feature",
   "geometry": {
    "type": "Point",
    "coordinates": [
     -73.903534,
     40.701942
    ]
   },
   "properties": {
    "id": "rolo-s",
    "name": "Rolo’s",
    "address": "853 Onderdonk Avenue, Queens, NY 11385",
    "on_list_now": true,
    "periods": [
     "2025-04-18..2026-09-21"
    ],
    "period_count": 1
   }
  },
  {
   "type": "Feature",
   "geometry": {
    "type": "Point",
    "coordinates": [
     -73.997691,
     40.717406
    ]
   },
   "properties": {
    "id": "royal-seafood",
    "name": "Royal Seafood",
    "address": "103-105 Mott St (btwn Canal & Hester St), New York, NY 10013",
    "on_list_now": false,
    "periods": [
     "2024-07-11..2025-04-05"
    ],
    "period_count": 1
   }
  },
  {
   "type": "Feature",
   "geometry": {
    "type": "Point",
    "coordinates": [
     -73.989659,
     40.719676
    ]
   },
   "properties": {
    "id": "russ-and-daughters-cafe",
    "name": "Russ & Daughters Cafe",
    "address": "127 Orchard St, New York, NY 10002",
    "on_list_now": false,
    "periods": [
     "2023-03-28..2023-11-28"
    ],
    "period_count": 1
   }
  },
  {
   "type": "Feature",
   "geometry": {
    "type": "Point",
    "coordinates": [
     -73.921847,
     40.760606
    ]
   },
   "properties": {
    "id": "ruta-oaxaca-mexican-cuisine",
    "name": "Ruta Oaxaca Mexican Cuisine",
    "address": "35-03 Broadway, Queens, NY 11106",
    "on_list_now": false,
    "periods": [
     "2021-06-14..2023-03-21"
    ],
    "period_count": 1
   }
  },
  {
   "type": "Feature",
   "geometry": {
    "type": "Point",
    "coordinates": [
     -73.990194,
     40.741159
    ]
   },
   "properties": {
    "id": "s-and-p-lunch",
    "name": "S&P Lunch",
    "address": "174 5th Avenue, Manhattan, NY",
    "on_list_now": true,
    "periods": [
     "2023-07-13..2025-09-29",
     "2026-07-10..2026-09-21"
    ],
    "period_count": 2
   }
  },
  {
   "type": "Feature",
   "geometry": {
    "type": "Point",
    "coordinates": [
     -74.007752,
     40.706487
    ]
   },
   "properties": {
    "id": "saga",
    "name": "Saga",
    "address": "70 Pine St 63rd Floor, New York, NY 10005",
    "on_list_now": false,
    "periods": [
     "2022-04-26..2022-09-22"
    ],
    "period_count": 1
   }
  },
  {
   "type": "Feature",
   "geometry": {
    "type": "Point",
    "coordinates": [
     -73.970311,
     40.689383
    ]
   },
   "properties": {
    "id": "sailor",
    "name": "Sailor",
    "address": "228 DeKalb Ave, Brooklyn, NY, 11205, US",
    "on_list_now": false,
    "periods": [
     "2025-01-15..2026-03-14"
    ],
    "period_count": 1
   }
  },
  {
   "type": "Feature",
   "geometry": {
    "type": "Point",
    "coordinates": [
     -73.995709,
     40.687883
    ]
   },
   "properties": {
    "id": "saint-julivert",
    "name": "Saint Julivert",
    "address": "264 Clinton St (Verandah Place), New York, NY 10002",
    "on_list_now": false,
    "periods": [
     "2025-04-18..2025-07-02"
    ],
    "period_count": 1
   }
  },
  {
   "type": "Feature",
   "geometry": {
    "type": "Point",
    "coordinates": [
     -73.973,
     40.751455
    ]
   },
   "properties": {
    "id": "sakagura",
    "name": "Sakagura",
    "address": "211 E 43rd St B1, New York, NY 10017",
    "on_list_now": false,
    "periods": [
     "2018-02-03..2018-02-18"
    ],
    "period_count": 1
   }
  },
  {
   "type": "Feature",
   "geometry": {
    "type": "Point",
    "coordinates": [
     -73.991426,
     40.715362
    ]
   },
   "properties": {
    "id": "scarr-s-pizza",
    "name": "Scarr's Pizza",
    "address": "22 Orchard St New York, NY 10002",
    "on_list_now": false,
    "periods": [
     "2019-07-21..2021-04-24"
    ],
    "period_count": 1
   }
  },
  {
   "type": "Feature",
   "geometry": {
    "type": "Point",
    "coordinates": [
     -74.000467,
     40.736037
    ]
   },
   "properties": {
    "id": "semma",
    "name": "Semma",
    "address": "60 Greenwich Avenue, Manhattan, NY, 10011",
    "on_list_now": false,
    "periods": [
     "2022-10-13..2023-05-30",
     "2024-01-13..2025-09-29"
    ],
    "period_count": 2
   }
  },
  {
   "type": "Feature",
   "geometry": {
    "type": "Point",
    "coordinates": [
     -73.990813,
     40.757983
    ]
   },
   "properties": {
    "id": "sky-pavilion",
    "name": "Sky Pavilion",
    "address": "325 West 42nd Street, New York, New York 10036",
    "on_list_now": true,
    "periods": [
     "2025-01-15..2026-09-21"
    ],
    "period_count": 1
   }
  },
  {
   "type": "Feature",
   "geometry": {
    "type": "Point",
    "coordinates": [
     -73.984193,
     40.727785
    ]
   },
   "properties": {
    "id": "smithereens",
    "name": "Smithereens",
    "address": "414 E 9th St, New York, NY, 10009, US",
    "on_list_now": true,
    "periods": [
     "2026-07-10..2026-09-21"
    ],
    "period_count": 1
   }
  },
  {
   "type": "Feature",
   "geometry": {
    "type": "Point",
    "coordinates": [
     -73.98735,
     40.732282
    ]
   },
   "properties": {
    "id": "soothr",
    "name": "Soothr",
    "address": "204 E 13th St New York, NY 10003",
    "on_list_now": false,
    "periods": [
     "2022-01-22..2022-04-07"
    ],
    "period_count": 1
   }
  },
  {
   "type": "Feature",
   "geometry": {
    "type": "Point",
    "coordinates": [
     -73.9937606621895,
     40.71706901054625
    ]
   },
   "properties": {
    "id": "spicy-village",
    "name": "Spicy Village",
    "address": "68B Forsyth St New York, NY",
    "on_list_now": false,
    "periods": [
     "2017-08-05..2018-10-03"
    ],
    "period_count": 1
   }
  },
  {
   "type": "Feature",
   "geometry": {
    "type": "Point",
    "coordinates": [
     -73.95611028727457,
     40.714210869857595
    ]
   },
   "properties": {
    "id": "st-anselm",
    "name": "St. Anselm",
    "address": "355 Metropolitan Ave Brooklyn, NY",
    "on_list_now": false,
    "periods": [
     "2017-08-05..2018-10-03"
    ],
    "period_count": 1
   }
  },
  {
   "type": "Feature",
   "geometry": {
    "type": "Point",
    "coordinates": [
     -74.005535,
     40.741358
    ]
   },
   "properties": {
    "id": "sullivan-street-bakery",
    "name": "Sullivan Street Bakery",
    "address": "236 9th Ave New York, NY 10011",
    "on_list_now": false,
    "periods": [
     "2018-02-03..2019-05-28"
    ],
    "period_count": 1
   }
  },
  {
   "type": "Feature",
   "geometry": {
    "type": "Point",
    "coordinates": [
     -73.990962,
     40.714422
    ]
   },
   "properties": {
    "id": "sunn-s",
    "name": "Sunn’s",
    "address": "139 Division St, New York, NY, 10002, US",
    "on_list_now": true,
    "periods": [
     "2025-10-08..2026-09-21"
    ],
    "period_count": 1
   }
  },
  {
   "type": "Feature",
   "geometry": {
    "type": "Point",
    "coordinates": [
     -73.983507,
     40.726464
    ]
   },
   "properties": {
    "id": "superiority-burger",
    "name": "Superiority Burger",
    "address": "119 Avenue A, New York, NY, 10009, US",
    "on_list_now": true,
    "periods": [
     "2017-08-05..2021-01-06",
     "2023-07-13..2026-09-21"
    ],
    "period_count": 2
   }
  },
  {
   "type": "Feature",
   "geometry": {
    "type": "Point",
    "coordinates": [
     -73.958119,
     40.773879
    ]
   },
   "properties": {
    "id": "sushi-noz",
    "name": "Sushi Noz",
    "address": "181 E 78th St New York, NY 10075",
    "on_list_now": false,
    "periods": [
     "2020-03-18..2022-04-07"
    ],
    "period_count": 1
   }
  },
  {
   "type": "Feature",
   "geometry": {
    "type": "Point",
    "coordinates": [
     -73.893901,
     40.746392
    ]
   },
   "properties": {
    "id": "sushi-on-me",
    "name": "Sushi On Me",
    "address": "71-26 Roosevelt Ave, Queens, NY 11372",
    "on_list_now": false,
    "periods": [
     "2023-03-28..2024-03-17"
    ],
    "period_count": 1
   }
  },
  {
   "type": "Feature",
   "geometry": {
    "type": "Point",
    "coordinates": [
     -73.944479,
     40.808645
    ]
   },
   "properties": {
    "id": "sylvia-s",
    "name": "Sylvia’s",
    "address": "328 Malcolm X Boulevard, Manhattan, NY 10027",
    "on_list_now": false,
    "periods": [
     "2023-03-28..2025-12-18"
    ],
    "period_count": 1
   }
  },
  {
   "type": "Feature",
   "geometry": {
    "type": "Point",
    "coordinates": [
     -73.832282,
     40.759064
    ]
   },
   "properties": {
    "id": "szechuan-mountain-house",
    "name": "Szechuan Mountain House",
    "address": "3916 Prince St g03, Queens, NY 11354",
    "on_list_now": false,
    "periods": [
     "2019-01-19..2019-02-02",
     "2023-03-28..2023-11-28"
    ],
    "period_count": 2
   }
  },
  {
   "type": "Feature",
   "geometry": {
    "type": "Point",
    "coordinates": [
     -73.957007,
     40.727895
    ]
   },
   "properties": {
    "id": "taqueria-ramirez",
    "name": "Taqueria Ramirez",
    "address": "94 Franklin St (at Oak St), Brooklyn, NY 11222",
    "on_list_now": false,
    "periods": [
     "2022-01-22..2025-04-05"
    ],
    "period_count": 1
   }
  },
  {
   "type": "Feature",
   "geometry": {
    "type": "Point",
    "coordinates": [
     -73.995585,
     40.720668
    ]
   },
   "properties": {
    "id": "thai-diner",
    "name": "Thai Diner",
    "address": "186 Mott St, New York, NY 10012",
    "on_list_now": false,
    "periods": [
     "2020-11-21..2021-12-20",
     "2023-03-28..2023-10-03"
    ],
    "period_count": 2
   }
  },
  {
   "type": "Feature",
   "geometry": {
    "type": "Point",
    "coordinates": [
     -73.957321,
     40.713058
    ]
   },
   "properties": {
    "id": "the-four-horsemen",
    "name": "The Four Horsemen",
    "address": "295 Grand St Side, Brooklyn, NY, 11211, US",
    "on_list_now": true,
    "periods": [
     "2022-01-22..2026-09-21"
    ],
    "period_count": 1
   }
  },
  {
   "type": "Feature",
   "geometry": {
    "type": "Point",
    "coordinates": [
     -73.972028,
     40.758363
    ]
   },
   "properties": {
    "id": "the-grill",
    "name": "The Grill",
    "address": "99 E 52nd St New York, NY 10022",
    "on_list_now": false,
    "periods": [
     "2018-02-03..2019-12-05"
    ],
    "period_count": 1
   }
  },
  {
   "type": "Feature",
   "geometry": {
    "type": "Point",
    "coordinates": [
     -73.998963,
     40.713862
    ]
   },
   "properties": {
    "id": "the-original-buddha-bodai-kosher-vegetarian-restaurant",
    "name": "The Original Buddha Bodai Kosher Vegetarian Restaurant",
    "address": "5 Mott St, New York, NY 10013",
    "on_list_now": false,
    "periods": [
     "2023-03-28..2023-05-30"
    ],
    "period_count": 1
   }
  },
  {
   "type": "Feature",
   "geometry": {
    "type": "Point",
    "coordinates": [
     -73.996925,
     40.719443
    ]
   },
   "properties": {
    "id": "tomino-taberna-gallega",
    "name": "Tomiño Taberna Gallega",
    "address": "192 Grand St New York, NY 10013",
    "on_list_now": false,
    "periods": [
     "2019-01-19..2019-02-02"
    ],
    "period_count": 1
   }
  },
  {
   "type": "Feature",
   "geometry": {
    "type": "Point",
    "coordinates": [
     -73.9205,
     40.708079
    ]
   },
   "properties": {
    "id": "tong",
    "name": "Tong",
    "address": "321 Starr St Brooklyn, NY 11237",
    "on_list_now": false,
    "periods": [
     "2021-06-14..2021-12-20"
    ],
    "period_count": 1
   }
  },
  {
   "type": "Feature",
   "geometry": {
    "type": "Point",
    "coordinates": [
     -73.88611,
     40.857574
    ]
   },
   "properties": {
    "id": "tony-and-tina-s-pizzeria",
    "name": "Tony & Tina's Pizzeria",
    "address": "2483 Arthur Ave The Bronx, NY 10458",
    "on_list_now": false,
    "periods": [
     "2021-04-21..2021-04-24"
    ],
    "period_count": 1
   }
  },
  {
   "type": "Feature",
   "geometry": {
    "type": "Point",
    "coordinates": [
     -73.98719,
     40.764987
    ]
   },
   "properties": {
    "id": "torishin",
    "name": "Torishin",
    "address": "362 W 53rd St New York, NY 10019",
    "on_list_now": false,
    "periods": [
     "2018-07-11..2019-05-28"
    ],
    "period_count": 1
   }
  },
  {
   "type": "Feature",
   "geometry": {
    "type": "Point",
    "coordinates": [
     -73.984312,
     40.747234
    ]
   },
   "properties": {
    "id": "tosokchon",
    "name": "Tosokchon",
    "address": "14 East 33rd Street, New York, New York 10016",
    "on_list_now": false,
    "periods": [
     "2024-01-13..2024-06-17"
    ],
    "period_count": 1
   }
  },
  {
   "type": "Feature",
   "geometry": {
    "type": "Point",
    "coordinates": [
     -74.000366,
     40.747368
    ]
   },
   "properties": {
    "id": "txikito",
    "name": "Txikito",
    "address": "240 9th Ave, New York, NY, 10001, US",
    "on_list_now": false,
    "periods": [
     "2025-07-08..2026-03-14"
    ],
    "period_count": 1
   }
  },
  {
   "type": "Feature",
   "geometry": {
    "type": "Point",
    "coordinates": [
     -73.99605,
     40.677943
    ]
   },
   "properties": {
    "id": "ugly-baby",
    "name": "Ugly Baby",
    "address": "407 Smith St, Brooklyn, NY 11231",
    "on_list_now": false,
    "periods": [
     "2018-07-11..2019-02-02",
     "2020-11-21..2021-03-17",
     "2023-01-13..2025-01-06"
    ],
    "period_count": 3
   }
  },
  {
   "type": "Feature",
   "geometry": {
    "type": "Point",
    "coordinates": [
     -73.986664,
     40.729353
    ]
   },
   "properties": {
    "id": "uluh",
    "name": "Uluh",
    "address": "152 2nd Ave (btw 9th & 10th St), New York, NY 10003",
    "on_list_now": false,
    "periods": [
     "2024-04-09..2025-01-06"
    ],
    "period_count": 1
   }
  },
  {
   "type": "Feature",
   "geometry": {
    "type": "Point",
    "coordinates": [
     -73.988625,
     40.721756
    ]
   },
   "properties": {
    "id": "una-pizza-napoletana",
    "name": "Una Pizza Napoletana",
    "address": "175 Orchard St, New York, NY, 10002, US",
    "on_list_now": true,
    "periods": [
     "2023-03-28..2026-09-21"
    ],
    "period_count": 1
   }
  },
  {
   "type": "Feature",
   "geometry": {
    "type": "Point",
    "coordinates": [
     -73.999391,
     40.716292
    ]
   },
   "properties": {
    "id": "uncle-lou",
    "name": "Uncle Lou",
    "address": "73 Mulberry St (btw Canal & Bayard), New York, NY 10013",
    "on_list_now": false,
    "periods": [
     "2024-01-13..2024-06-17"
    ],
    "period_count": 1
   }
  },
  {
   "type": "Feature",
   "geometry": {
    "type": "Point",
    "coordinates": [
     -73.979019,
     40.670263
    ]
   },
   "properties": {
    "id": "vato",
    "name": "Vato",
    "address": "226 7th Avenue, Brooklyn, New York 11215, United States",
    "on_list_now": true,
    "periods": [
     "2026-07-10..2026-09-21"
    ],
    "period_count": 1
   }
  },
  {
   "type": "Feature",
   "geometry": {
    "type": "Point",
    "coordinates": [
     -73.986961,
     40.728945
    ]
   },
   "properties": {
    "id": "veselka",
    "name": "Veselka",
    "address": "144 2nd Ave, New York, NY 10003",
    "on_list_now": false,
    "periods": [
     "2022-10-13..2023-03-21"
    ],
    "period_count": 1
   }
  },
  {
   "type": "Feature",
   "geometry": {
    "type": "Point",
    "coordinates": [
     -74.003403,
     40.731701
    ]
   },
   "properties": {
    "id": "via-carota",
    "name": "Via Carota",
    "address": "51 Grove St, New York, NY, 10014, US",
    "on_list_now": false,
    "periods": [
     "2019-01-19..2019-12-05",
     "2021-04-21..2021-10-11",
     "2023-03-28..2025-01-06",
     "2025-07-08..2026-07-09"
    ],
    "period_count": 4
   }
  },
  {
   "type": "Feature",
   "geometry": {
    "type": "Point",
    "coordinates": [
     -73.984075,
     40.762884
    ]
   },
   "properties": {
    "id": "victor-s-cafe",
    "name": "Victor's Cafe",
    "address": "236 W 52nd St New York, NY 10019",
    "on_list_now": false,
    "periods": [
     "2018-02-03..2018-10-03"
    ],
    "period_count": 1
   }
  },
  {
   "type": "Feature",
   "geometry": {
    "type": "Point",
    "coordinates": [
     -73.906804,
     40.702077
    ]
   },
   "properties": {
    "id": "while-in-kathmandu",
    "name": "While in Kathmandu",
    "address": "758 Seneca Ave, Ridgewood, NY 11385",
    "on_list_now": false,
    "periods": [
     "2023-07-13..2023-11-28"
    ],
    "period_count": 1
   }
  },
  {
   "type": "Feature",
   "geometry": {
    "type": "Point",
    "coordinates": [
     -73.98936467240519,
     40.72005215094157
    ]
   },
   "properties": {
    "id": "wildair",
    "name": "Wildair",
    "address": "142 Orchard St New York, NY",
    "on_list_now": false,
    "periods": [
     "2017-08-05..2018-10-03"
    ],
    "period_count": 1
   }
  },
  {
   "type": "Feature",
   "geometry": {
    "type": "Point",
    "coordinates": [
     -73.943501,
     40.707458
    ]
   },
   "properties": {
    "id": "win-son",
    "name": "Win Son",
    "address": "159 Graham Ave, Brooklyn, NY 11206",
    "on_list_now": false,
    "periods": [
     "2018-07-11..2020-11-12",
     "2023-10-13..2024-10-07"
    ],
    "period_count": 2
   }
  },
  {
   "type": "Feature",
   "geometry": {
    "type": "Point",
    "coordinates": [
     -73.982278,
     40.665684
    ]
   },
   "properties": {
    "id": "winner",
    "name": "Winner",
    "address": "367 7th Ave Brooklyn, NY 11215",
    "on_list_now": false,
    "periods": [
     "2021-10-15..2022-04-07"
    ],
    "period_count": 1
   }
  },
  {
   "type": "Feature",
   "geometry": {
    "type": "Point",
    "coordinates": [
     -73.98817703639,
     40.748289015143
    ]
   },
   "properties": {
    "id": "woorijip",
    "name": "Woorijip",
    "address": "12 W 32nd St (btwn Broadway & 5th Ave), New York, NY 10001",
    "on_list_now": false,
    "periods": [
     "2024-04-09..2024-06-17"
    ],
    "period_count": 1
   }
  },
  {
   "type": "Feature",
   "geometry": {
    "type": "Point",
    "coordinates": [
     -73.989941,
     40.713834
    ]
   },
   "properties": {
    "id": "wu-s-wonton-king",
    "name": "Wu's Wonton King",
    "address": "165 E Broadway, New York, NY 10002",
    "on_list_now": false,
    "periods": [
     "2021-04-21..2022-12-27"
    ],
    "period_count": 1
   }
  },
  {
   "type": "Feature",
   "geometry": {
    "type": "Point",
    "coordinates": [
     -73.997357,
     40.715087
    ]
   },
   "properties": {
    "id": "xi-an-famous-foods",
    "name": "Xi'an Famous Foods",
    "address": "45 Bayard St New York, NY 10013",
    "on_list_now": false,
    "periods": [
     "2019-01-19..2021-04-24"
    ],
    "period_count": 1
   }
  },
  {
   "type": "Feature",
   "geometry": {
    "type": "Point",
    "coordinates": [
     -73.910767,
     40.823036
    ]
   },
   "properties": {
    "id": "yankee-stadium",
    "name": "Yankee Stadium",
    "address": "1 E 161st St Bronx, NY 10451",
    "on_list_now": false,
    "periods": [
     "2018-07-11..2018-07-16"
    ],
    "period_count": 1
   }
  },
  {
   "type": "Feature",
   "geometry": {
    "type": "Point",
    "coordinates": [
     -73.988059,
     40.732545
    ]
   },
   "properties": {
    "id": "yellow-rose",
    "name": "Yellow Rose",
    "address": "102 3rd Ave, New York, NY 10003",
    "on_list_now": false,
    "periods": [
     "2022-01-22..2022-12-27"
    ],
    "period_count": 1
   }
  },
  {
   "type": "Feature",
   "geometry": {
    "type": "Point",
    "coordinates": [
     -73.995731,
     40.718187
    ]
   },
   "properties": {
    "id": "yi-ji-shi-mo",
    "name": "Yi Ji Shi Mo",
    "address": "88 Elizabeth St New York, NY 10013",
    "on_list_now": false,
    "periods": [
     "2020-11-21..2021-04-24"
    ],
    "period_count": 1
   }
  },
  {
   "type": "Feature",
   "geometry": {
    "type": "Point",
    "coordinates": [
     -73.888664,
     40.743263
    ]
   },
   "properties": {
    "id": "zaab-zaab",
    "name": "Zaab Zaab",
    "address": "7604 Woodside Ave, Elmhurst, NY, 11373, US",
    "on_list_now": true,
    "periods": [
     "2022-10-13..2023-03-21",
     "2025-04-18..2026-09-21"
    ],
    "period_count": 2
   }
  },
  {
   "type": "Feature",
   "geometry": {
    "type": "Point",
    "coordinates": [
     -74.00478,
     40.731474
    ]
   },
   "properties": {
    "id": "zimmi-s",
    "name": "Zimmi’s",
    "address": "72 Bedford St, New York, NY, 10014, US",
    "on_list_now": true,
    "periods": [
     "2026-07-10..2026-09-21"
    ],
    "period_count": 1
   }
  }
 ]
}